CCSDS_OMM_VERS = 2.0
CREATION_DATE  = 
ORIGINATOR     = 

OBJECT_NAME    = UNKNOWN
OBJECT_ID      = 
CENTER_NAME    = EARTH
REF_FRAME      = TEME
TIME_SYSTEM    = UTC
MEAN_ELEMENT_THEORY = SGP/SGP4

EPOCH          = 2026-02-08T08:09:59.851584
MEAN_MOTION    = 14.48637936
ECCENTRICITY   = .0285058
INCLINATION    = 82.0646
RA_OF_ASC_NODE = 167.8181
ARG_OF_PERICENTER = 103.8789
MEAN_ANOMALY   = 259.4290

EPHEMERIS_TYPE = 0
CLASSIFICATION_TYPE = U
NORAD_CAT_ID   = 89172
ELEMENT_SET_NO = 999
REV_AT_EPOCH   = 61022
BSTAR          = .23504E-2
MEAN_MOTION_DOT = .14916E-3
MEAN_MOTION_DDOT = 0

CCSDS_OMM_VERS = 2.0
CREATION_DATE  = 
ORIGINATOR     = 

OBJECT_NAME    = UNKNOWN
OBJECT_ID      = 
CENTER_NAME    = EARTH
REF_FRAME      = TEME
TIME_SYSTEM    = UTC
MEAN_ELEMENT_THEORY = SGP/SGP4

EPOCH          = 2026-01-20T20:19:31.958688
MEAN_MOTION    = 13.73733405
ECCENTRICITY   = .0033216
INCLINATION    = 82.9182
RA_OF_ASC_NODE = 240.1233
ARG_OF_PERICENTER = 35.5386
MEAN_ANOMALY   = 324.7972

EPHEMERIS_TYPE = 0
CLASSIFICATION_TYPE = U
NORAD_CAT_ID   = 89177
ELEMENT_SET_NO = 999
REV_AT_EPOCH   = 6819
BSTAR          = .11791E-3
MEAN_MOTION_DOT = .126E-5
MEAN_MOTION_DDOT = 0

CCSDS_OMM_VERS = 2.0
CREATION_DATE  = 
ORIGINATOR     = 

OBJECT_NAME    = UNKNOWN
OBJECT_ID      = 
CENTER_NAME    = EARTH
REF_FRAME      = TEME
TIME_SYSTEM    = UTC
MEAN_ELEMENT_THEORY = SGP/SGP4

EPOCH          = 2026-02-11T14:11:50.245728
MEAN_MOTION    = 13.81671193
ECCENTRICITY   = .0131129
INCLINATION    = 99.2185
RA_OF_ASC_NODE = 317.2834
ARG_OF_PERICENTER = 355.1499
MEAN_ANOMALY   = 4.8375

EPHEMERIS_TYPE = 0
CLASSIFICATION_TYPE = U
NORAD_CAT_ID   = 89183
ELEMENT_SET_NO = 999
REV_AT_EPOCH   = 61537
BSTAR          = .5924E-3
MEAN_MOTION_DOT = .632E-5
MEAN_MOTION_DDOT = 0

CCSDS_OMM_VERS = 2.0
CREATION_DATE  = 
ORIGINATOR     = 

OBJECT_NAME    = UNKNOWN
OBJECT_ID      = 
CENTER_NAME    = EARTH
REF_FRAME      = TEME
TIME_SYSTEM    = UTC
MEAN_ELEMENT_THEORY = SGP/SGP4

EPOCH          = 2026-02-12T02:06:16.123104
MEAN_MOTION    = 14.84879186
ECCENTRICITY   = .0009581
INCLINATION    = 98.3865
RA_OF_ASC_NODE = 275.8183
ARG_OF_PERICENTER = 304.4923
MEAN_ANOMALY   = 55.5384

EPHEMERIS_TYPE = 0
CLASSIFICATION_TYPE = U
NORAD_CAT_ID   = 89184
ELEMENT_SET_NO = 999
REV_AT_EPOCH   = 50126
BSTAR          = .30834E-2
MEAN_MOTION_DOT = .26274E-3
MEAN_MOTION_DDOT = 0

CCSDS_OMM_VERS = 2.0
CREATION_DATE  = 
ORIGINATOR     = 

OBJECT_NAME    = UNKNOWN
OBJECT_ID      = 
CENTER_NAME    = EARTH
REF_FRAME      = TEME
TIME_SYSTEM    = UTC
MEAN_ELEMENT_THEORY = SGP/SGP4

EPOCH          = 2026-02-11T21:15:19.514592
MEAN_MOTION    = 13.91676818
ECCENTRICITY   = .0227273
INCLINATION    = 98.7752
RA_OF_ASC_NODE = 277.8113
ARG_OF_PERICENTER = 318.8881
MEAN_ANOMALY   = 39.5345

EPHEMERIS_TYPE = 0
CLASSIFICATION_TYPE = U
NORAD_CAT_ID   = 89213
ELEMENT_SET_NO = 999
REV_AT_EPOCH   = 46117
BSTAR          = .37638E-3
MEAN_MOTION_DOT = .547E-5
MEAN_MOTION_DDOT = 0

CCSDS_OMM_VERS = 2.0
CREATION_DATE  = 
ORIGINATOR     = 

OBJECT_NAME    = UNKNOWN
OBJECT_ID      = 
CENTER_NAME    = EARTH
REF_FRAME      = TEME
TIME_SYSTEM    = UTC
MEAN_ELEMENT_THEORY = SGP/SGP4

EPOCH          = 2026-02-12T14:53:47.395680
MEAN_MOTION    = 9.26264077
ECCENTRICITY   = .2828197
INCLINATION    = 62.4750
RA_OF_ASC_NODE = 282.4390
ARG_OF_PERICENTER = 106.3907
MEAN_ANOMALY   = 286.3383

EPHEMERIS_TYPE = 0
CLASSIFICATION_TYPE = U
NORAD_CAT_ID   = 89251
ELEMENT_SET_NO = 999
REV_AT_EPOCH   = 37891
BSTAR          = .74271E-2
MEAN_MOTION_DOT = .12978E-3
MEAN_MOTION_DDOT = 0

CCSDS_OMM_VERS = 2.0
CREATION_DATE  = 
ORIGINATOR     = 

OBJECT_NAME    = UNKNOWN
OBJECT_ID      = 
CENTER_NAME    = EARTH
REF_FRAME      = TEME
TIME_SYSTEM    = UTC
MEAN_ELEMENT_THEORY = SGP/SGP4

EPOCH          = 2026-01-30T16:52:29.332992
MEAN_MOTION    = 14.43240828
ECCENTRICITY   = .0013268
INCLINATION    = 98.1574
RA_OF_ASC_NODE = 28.0262
ARG_OF_PERICENTER = 16.1159
MEAN_ANOMALY   = 344.0451

EPHEMERIS_TYPE = 0
CLASSIFICATION_TYPE = U
NORAD_CAT_ID   = 89261
ELEMENT_SET_NO = 999
REV_AT_EPOCH   = 54087
BSTAR          = .4026E-3
MEAN_MOTION_DOT = .1315E-4
MEAN_MOTION_DDOT = 0

CCSDS_OMM_VERS = 2.0
CREATION_DATE  = 
ORIGINATOR     = 

OBJECT_NAME    = UNKNOWN
OBJECT_ID      = 
CENTER_NAME    = EARTH
REF_FRAME      = TEME
TIME_SYSTEM    = UTC
MEAN_ELEMENT_THEORY = SGP/SGP4

EPOCH          = 2026-01-23T10:03:28.098144
MEAN_MOTION    = 9.06672246
ECCENTRICITY   = .2876157
INCLINATION    = 84.3296
RA_OF_ASC_NODE = 92.8600
ARG_OF_PERICENTER = 291.7160
MEAN_ANOMALY   = 59.5526

EPHEMERIS_TYPE = 0
CLASSIFICATION_TYPE = U
NORAD_CAT_ID   = 89304
ELEMENT_SET_NO = 999
REV_AT_EPOCH   = 44217
BSTAR          = .62545E-1
MEAN_MOTION_DOT = .69887E-3
MEAN_MOTION_DDOT = 0

CCSDS_OMM_VERS = 2.0
CREATION_DATE  = 
ORIGINATOR     = 

OBJECT_NAME    = UNKNOWN
OBJECT_ID      = 
CENTER_NAME    = EARTH
REF_FRAME      = TEME
TIME_SYSTEM    = UTC
MEAN_ELEMENT_THEORY = SGP/SGP4

EPOCH          = 2026-02-11T08:31:27.903648
MEAN_MOTION    = 12.96271248
ECCENTRICITY   = .0031514
INCLINATION    = 90.2489
RA_OF_ASC_NODE = 8.7033
ARG_OF_PERICENTER = 103.8643
MEAN_ANOMALY   = 256.5986

EPHEMERIS_TYPE = 0
CLASSIFICATION_TYPE = U
NORAD_CAT_ID   = 89349
ELEMENT_SET_NO = 999
REV_AT_EPOCH   = 48660
BSTAR          = .21003E-2
MEAN_MOTION_DOT = .608E-5
MEAN_MOTION_DDOT = 0

CCSDS_OMM_VERS = 2.0
CREATION_DATE  = 
ORIGINATOR     = 

OBJECT_NAME    = UNKNOWN
OBJECT_ID      = 
CENTER_NAME    = EARTH
REF_FRAME      = TEME
TIME_SYSTEM    = UTC
MEAN_ELEMENT_THEORY = SGP/SGP4

EPOCH          = 2026-02-12T00:07:32.759328
MEAN_MOTION    = 13.63291591
ECCENTRICITY   = .004114
INCLINATION    = 100.4795
RA_OF_ASC_NODE = 67.8497
ARG_OF_PERICENTER = 330.3823
MEAN_ANOMALY   = 29.4986

EPHEMERIS_TYPE = 0
CLASSIFICATION_TYPE = U
NORAD_CAT_ID   = 89379
ELEMENT_SET_NO = 999
REV_AT_EPOCH   = 58912
BSTAR          = .56537E-2
MEAN_MOTION_DOT = .4426E-4
MEAN_MOTION_DDOT = 0

CCSDS_OMM_VERS = 2.0
CREATION_DATE  = 
ORIGINATOR     = 

OBJECT_NAME    = UNKNOWN
OBJECT_ID      = 
CENTER_NAME    = EARTH
REF_FRAME      = TEME
TIME_SYSTEM    = UTC
MEAN_ELEMENT_THEORY = SGP/SGP4

EPOCH          = 2026-02-02T20:13:19.838208
MEAN_MOTION    = 12.01518607
ECCENTRICITY   = .0225067
INCLINATION    = 102.3718
RA_OF_ASC_NODE = 4.1776
ARG_OF_PERICENTER = 36.4136
MEAN_ANOMALY   = 354.7399

EPHEMERIS_TYPE = 0
CLASSIFICATION_TYPE = U
NORAD_CAT_ID   = 89395
ELEMENT_SET_NO = 999
REV_AT_EPOCH   = 53100
BSTAR          = .4396E-2
MEAN_MOTION_DOT = .348E-5
MEAN_MOTION_DDOT = 0

CCSDS_OMM_VERS = 2.0
CREATION_DATE  = 
ORIGINATOR     = 

OBJECT_NAME    = UNKNOWN
OBJECT_ID      = 
CENTER_NAME    = EARTH
REF_FRAME      = TEME
TIME_SYSTEM    = UTC
MEAN_ELEMENT_THEORY = SGP/SGP4

EPOCH          = 2026-02-12T08:52:22.422144
MEAN_MOTION    = 12.98818078
ECCENTRICITY   = .0031644
INCLINATION    = 90.2500
RA_OF_ASC_NODE = 7.1979
ARG_OF_PERICENTER = 55.1483
MEAN_ANOMALY   = 100.2709

EPHEMERIS_TYPE = 0
CLASSIFICATION_TYPE = U
NORAD_CAT_ID   = 89403
ELEMENT_SET_NO = 999
REV_AT_EPOCH   = 48582
BSTAR          = .3436E-2
MEAN_MOTION_DOT = .1026E-4
MEAN_MOTION_DDOT = 0

CCSDS_OMM_VERS = 2.0
CREATION_DATE  = 
ORIGINATOR     = 

OBJECT_NAME    = UNKNOWN
OBJECT_ID      = 
CENTER_NAME    = EARTH
REF_FRAME      = TEME
TIME_SYSTEM    = UTC
MEAN_ELEMENT_THEORY = SGP/SGP4

EPOCH          = 2026-02-10T05:06:58.745088
MEAN_MOTION    = 9.21787793
ECCENTRICITY   = .2871838
INCLINATION    = 83.9640
RA_OF_ASC_NODE = 137.4123
ARG_OF_PERICENTER = 307.3424
MEAN_ANOMALY   = 29.8310

EPHEMERIS_TYPE = 0
CLASSIFICATION_TYPE = U
NORAD_CAT_ID   = 89484
ELEMENT_SET_NO = 999
REV_AT_EPOCH   = 36089
BSTAR          = .47936E-1
MEAN_MOTION_DOT = .99122E-3
MEAN_MOTION_DDOT = 0

CCSDS_OMM_VERS = 2.0
CREATION_DATE  = 
ORIGINATOR     = 

OBJECT_NAME    = UNKNOWN
OBJECT_ID      = 
CENTER_NAME    = EARTH
REF_FRAME      = TEME
TIME_SYSTEM    = UTC
MEAN_ELEMENT_THEORY = SGP/SGP4

EPOCH          = 2026-02-02T03:35:35.639520
MEAN_MOTION    = 14.16603307
ECCENTRICITY   = .0081511
INCLINATION    = 99.0206
RA_OF_ASC_NODE = 107.7213
ARG_OF_PERICENTER = 252.6471
MEAN_ANOMALY   = 106.5776

EPHEMERIS_TYPE = 0
CLASSIFICATION_TYPE = U
NORAD_CAT_ID   = 89493
ELEMENT_SET_NO = 999
REV_AT_EPOCH   = 47122
BSTAR          = .12264E-2
MEAN_MOTION_DOT = .2481E-4
MEAN_MOTION_DDOT = 0

CCSDS_OMM_VERS = 2.0
CREATION_DATE  = 
ORIGINATOR     = 

OBJECT_NAME    = UNKNOWN
OBJECT_ID      = 
CENTER_NAME    = EARTH
REF_FRAME      = TEME
TIME_SYSTEM    = UTC
MEAN_ELEMENT_THEORY = SGP/SGP4

EPOCH          = 2026-02-12T15:50:35.102400
MEAN_MOTION    = 14.16604466
ECCENTRICITY   = .0083078
INCLINATION    = 99.0194
RA_OF_ASC_NODE = 118.2525
ARG_OF_PERICENTER = 223.2735
MEAN_ANOMALY   = 136.1893

EPHEMERIS_TYPE = 0
CLASSIFICATION_TYPE = U
NORAD_CAT_ID   = 89494
ELEMENT_SET_NO = 999
REV_AT_EPOCH   = 47256
BSTAR          = .12545E-2
MEAN_MOTION_DOT = .2543E-4
MEAN_MOTION_DDOT = 0

CCSDS_OMM_VERS = 2.0
CREATION_DATE  = 
ORIGINATOR     = 

OBJECT_NAME    = UNKNOWN
OBJECT_ID      = 
CENTER_NAME    = EARTH
REF_FRAME      = TEME
TIME_SYSTEM    = UTC
MEAN_ELEMENT_THEORY = SGP/SGP4

EPOCH          = 2026-02-07T06:55:34.630464
MEAN_MOTION    = 12.96129019
ECCENTRICITY   = .00320294
INCLINATION    = 90.2323
RA_OF_ASC_NODE = 345.0986
ARG_OF_PERICENTER = 96.8436
MEAN_ANOMALY   = 263.6330

EPHEMERIS_TYPE = 0
CLASSIFICATION_TYPE = U
NORAD_CAT_ID   = 270000
ELEMENT_SET_NO = 999
REV_AT_EPOCH   = 29326
BSTAR          = .21978811E-2
MEAN_MOTION_DOT = .635E-5
MEAN_MOTION_DDOT = 0

